Name,City,Address,Lat,Lng,Code,Unknown 1,Unknown (City) 2,Timing (Mon-to-Sat),Timing (Friday),Status,Break,Unknown 3,Unknown 4,Unknown 5
MEHREEN TELECOM,Gujranwala,CHOWK ZAFARWAL BY PASS NEAR BUS STAND NAROWAL,32.109194,74.872471,UFRNRW0002,1,SIALKOT,9:00 AM to 7:00 PM,9:00 AM to 7:00 PM,CLOSED,,1,4,
HATAF COMMUNICATION,SHAKAR GARH,Missile Chowk Railway Road Shakargarh,32.2523801,75.1662008,UFRSKH0001,1,SIALKOT,9:00 AM to 7:00 PM,9:00 AM to 7:00 PM,CLOSED,,1,5,
Butt Communications,Lahore,135-1 GHAZALI ROAD SECOND ROUND ABOUT SAMANABAD LAHORE,31.536307,74.305263,UFRLHE0018,1,LAHORE,9:00 AM to 7:00 PM,9:00 AM to 7:00 PM,CLOSED,,1,8,
TANVEER ASLAM,Lahore,E 105-1B ADJACENT MCB MAIN BOULEVARD DEFENCE LAHORE.,31.491461,74.377395,UFRLHE0008,1,LAHORE,9:00 AM to 7:00 PM,9:00 AM to 7:00 PM,CLOSED,,1,10,
RAI COMMUNICATION,Kamalia,NEAR MCB KAMALIA,30.727724,72.645176,UFRKMA0001,1,SAHIWAL,9:00 AM to 7:00 PM,9:00 AM to 7:00 PM,CLOSED,,1,16,
BILAL TELECOM,Lalamusa,NEAR NISAR HOSPITAL GT ROAD LALAMUSA,32.7039694,73.9507415,UFRGRT0005,1,GUJRANWALA,9:00 AM to 7:00 PM,9:00 AM to 7:00 PM,CLOSED,,1,18,
STAR MOBILE,Dinga,FAWARA CHOWK. DINGA,32.645256,73.727638,UFRDNG0001,1,GUJRANWALA,9:00 AM to 7:00 PM,9:00 AM to 7:00 PM,CLOSED,,1,21,
MOHSIN ASLAM,Lahore,UFONE FRANCHISE SHOP NO. G-12 REHMAN TOWERS NEAR JALAL SONS MAIN MARKET GULBERG II LAHORE,31.502922,74.348224,UFRLHE0023,1,LAHORE,9:00 AM to 7:00 PM,9:00 AM to 7:00 PM,CLOSED,,1,22,
AURANGZEB WAHLAH,Lahore,N 127 R 5-3-B-111 NEAR SOCIAL SECURITY HOSPITAL G.T. ROAD SHAHDARA,31.616109,74.290351,UFRLHE0015,1,LAHORE,9:00 AM to 7:00 PM,9:00 AM to 7:00 PM,CLOSED,,1,23,
Jamal Communication,Chicha_Watni,ALLAMA IQBAL ROAD NEAR MARATAB HOSPITAL CHICHAWATNI,30.528124,72.696928,UFRCWT0001,1,SAHIWAL,9:00 AM to 7:00 PM,9:00 AM to 7:00 PM,CLOSED,,1,25,
Technology Bux,Lahore,Plot No 587 Near MCB Saddar Lahore Cantt,31.549915,74.37782,UFRLHE0005,1,LAHORE,9:00 AM to 7:00 PM,9:00 AM to 7:00 PM,CLOSED,,1,28,
AHMED SAEED,Lahore,SHOPNo 35-A NEAR HAFIZ JUICE CORNEE GARHI SHAHU LAHORE,31.564121,74.344035,UFRLHE0009,1,LAHORE,9:00 AM to 7:00 PM,9:00 AM to 7:00 PM,CLOSED,,1,29,
Ali Communication,NANKANA SAHIB,Ufone Franchise Near Nadra Office Shora Khotti Road Nankana Sahib,31.450028,73.706389,UFRNAN0001,1,LAHORE,9:00 AM to 7:00 PM,9:00 AM to 7:00 PM,CLOSED,,1,30,
Tahir Communication,Taunsa Sharif,"Ufone Franchise Opp. British International School System, New College Road, Taunsa Sharif",30.712818,70.657761,UFRTNS0002,2,MULTAN,9:00 AM to 7:00 PM,9:00 AM to 7:00 PM,CLOSED,,1,31,
Muhammadi Communication,Abdul Hakim,Multan Road Near UBL Bank Abdul Hakeem,30.55147,72.12486,UFRAHM0001,2,MULTAN,9:00 AM to 7:00 PM,9:00 AM to 7:00 PM,CLOSED,,1,32,
DG Communication,D.G. Khan,Block No 5 College Road Dg Khan,30.05263,70.63649,UFRDGK0001,2,MULTAN,9:00 AM to 7:00 PM,9:00 AM to 7:00 PM,CLOSED,,1,34,
Daudi\'sCommunication,D.G. Khan,Block No 1 Railway Road Dg Khan,30.053508,70.6344429,UFRDGK0002,2,MULTAN,9:00 AM to 7:00 PM,9:00 AM to 7:00 PM,CLOSED,,1,35,
Usman Communication,Kot Addu,Near THQ Hospital GT Road,30.46564,70.96559,UFRKOT0002,2,SARGODHA,9:00 AM to 7:00 PM,9:00 AM to 7:00 PM,CLOSED,,1,36,
Al-Hamdullah Telecommunication,Jampur,Opp. Shell petrol pump Rajanpur Road Jampur,29.64662,70.59324,UFRJPR0002,2,MULTAN,9:00 AM to 7:00 PM,9:00 AM to 7:00 PM,CLOSED,,1,37,
Ahmed Communication,Kot Chutta,Opp. Childeren Clinic Jampur Road Kot Chutta,29.531503,70.390663,UFRKCT0001,2,MULTAN,9:00 AM to 7:00 PM,9:00 AM to 7:00 PM,CLOSED,,1,39,
Prime Telecomm,FAISALABAD,"Butt Plaza, ABC Road, Gulfishan Colony, Near Ghosia Chowk, Faisalabad",31.408276,73.040142,UFRFSD0012,2,FAISALABAD,9:00 AM to 7:00 PM,9:00 AM to 7:00 PM,CLOSED,,1,41,
Mushtaq Comm,Jhang,Yousaf Shah Road,31.27059,72.32257,UFRJHG0002,2,FAISALABAD,9:00 AM to 7:00 PM,9:00 AM to 7:00 PM,CLOSED,,1,42,
Al Raza Telecomm,Shor Kot,Main Jhang Road Near Yamaha Showroom Sabir Chowk,30.83387,72.07841,UFRSRT0001,2,FAISALABAD,9:00 AM to 7:00 PM,9:00 AM to 7:00 PM,CLOSED,,1,44,
Mashallah Linkers,Ahmed pur Sial,Main Bazar T. H. Q. Road,30.683861,71.761294,UFRAPS0001,2,FAISALABAD,9:00 AM to 7:00 PM,9:00 AM to 7:00 PM,CLOSED,,1,45,
V Communication,D.G. Khan,Peer Qataal Road Near Chowk Choratah Dg Khan,30.06662,70.64073,UFRDGK0004,2,MULTAN,9:00 AM to 7:00 PM,9:00 AM to 7:00 PM,CLOSED,,1,47,
Ali Communication,D.G. Khan,Fareedi Bazar Near General Bus StandÂ Dg Khan,30.055,70.6417,UFRDGK0003,2,MULTAN,9:00 AM to 7:00 PM,9:00 AM to 7:00 PM,CLOSED,,1,49,
Muslim Communication,Sakhi Sarwar,Near Civil Hospital Sakhisarwar,29.98024,70.30534,UFRSSR0001,2,MULTAN,9:00 AM to 7:00 PM,9:00 AM to 7:00 PM,CLOSED,,1,50,
Ameena Telecomm,Pindi Bhattian,Hafizabad Road Near PTCL Exchange,31.903745,73.271311,UFRPBH0001,2,FAISALABAD,9:00 AM to 7:00 PM,9:00 AM to 7:00 PM,CLOSED,,1,56,
BISMILLAH MOBILES,Bhakkar,Near GPO Bhakkar,31.62296,71.06303,UFRBKR0001,2,SARGODHA,9:00 AM to 7:00 PM,9:00 AM to 7:00 PM,CLOSED,,1,58,
Ashraf Communication,Karor Lal Eisan,opp balouch bus stand near UBL bank Karor lal Eisan,31.220727,70.9537,UFRKLE0002,2,SARGODHA,9:00 AM to 7:00 PM,9:00 AM to 7:00 PM,CLOSED,,1,60,
REHMAT TELECOM,Noushera,takbeer chowk noushera distt khushab,32.572338,72.157993,UFRNSR0001,2,SARGODHA,9:00 AM to 7:00 PM,9:00 AM to 7:00 PM,CLOSED,,1,62,
MALIK TELECOM,Bhera,Circular Road Near Chak Wala Darwaza,32.47978,72.91092,UFRBRA0001,2,SARGODHA,9:00 AM to 7:00 PM,9:00 AM to 7:00 PM,CLOSED,,1,63,
HASHMI TELECOM,Kallur Kot,Wahab Plaza Sargodha Raod,32.15683,71.26902,UFRKRT0001,2,SARGODHA,9:00 AM to 7:00 PM,9:00 AM to 7:00 PM,CLOSED,,1,64,
AL HAMD COMMUNICATION,Piplan,city piplan nazad gala mandi,32.28333,71.36667,UFREKL0001,2,SARGODHA,9:00 AM to 7:00 PM,9:00 AM to 7:00 PM,CLOSED,,1,65,
GLOBAL COMMUNICATION,Joharabad,College Road Near Khushali Bank Jauharabad,32.287015,72.285266,UFRKHB0001,2,SARGODHA,9:00 AM to 7:00 PM,9:00 AM to 7:00 PM,CLOSED,,1,66,
U COMMUNCATION,Rahim Yar Khan,9-Iqbal Complax Rahim Yar Khan,28.422009,70.312205,UFRRYK0001,2,RAHIM YAR KHAN,9:00 AM to 7:00 PM,9:00 AM to 7:00 PM,CLOSED,,1,67,
Hafeez Communication,Rajanpur,Near State Life insurance Dara Machi Wala Rajanpur,29.09983,70.32386,UFRRJN0002,2,RAHIM YAR KHAN,9:00 AM to 7:00 PM,9:00 AM to 7:00 PM,CLOSED,,1,68,
ESSA TELECOM,Sadiq Abad,Allama Iqbal Town opp. TMA Sadiq Abad,28.300394,70.135034,UFRSQD0001,2,RAHIM YAR KHAN,9:00 AM to 7:00 PM,9:00 AM to 7:00 PM,CLOSED,,1,70,
Dareshk Communication,Rajanpur,Near Mazari Market Sadiq Road Rajanpur,29.10454,70.32666,UFRRJN0001,2,RAHIM YAR KHAN,9:00 AM to 7:00 PM,9:00 AM to 7:00 PM,CLOSED,,1,71,
Maz Communication,Liaqatpur,Railway Phatak Road Near Qayoum Petrol Pump Liaquat Pur,28.9334,70.9448,UFRLQP0001,2,RAHIM YAR KHAN,9:00 AM to 7:00 PM,9:00 AM to 7:00 PM,CLOSED,,1,72,
Tabassum Telecom,Sangla Hill,Mughal Chowk Bazar Sheikhan,31.71345,73.3749,UFRSHL0001,2,FAISALABAD,9:00 AM to 7:00 PM,9:00 AM to 7:00 PM,CLOSED,,1,77,
Makkah Electronics,Toba Tek Singh,Adjacant Imam Bargh Road,30.97588,72.48222,UFRTTS0001,2,FAISALABAD,9:00 AM to 7:00 PM,9:00 AM to 7:00 PM,CLOSED,,1,79,
Air Tel,Khurrianwala,Behind 1122 Office Main Sheikhupura Road Khurrianwala Chowk,31.49724,73.27295,UFRFSD0008,2,FAISALABAD,9:00 AM to 7:00 PM,9:00 AM to 7:00 PM,CLOSED,,1,81,
Rasheed Telecom,Lodhran,Multan Road? Opp. Bank Of Punjab Lodhran,29.53333,71.63333,UFRLDN0002,2,MULTAN,9:00 AM to 7:00 PM,9:00 AM to 7:00 PM,CLOSED,,1,82,
Wafa Communication,Kabirwala,Near Dua marriage club jhang road kabirwala,30.40092,71.87301,UFRKNW0002,2,MULTAN,9:00 AM to 7:00 PM,9:00 AM to 7:00 PM,CLOSED,,1,83,
SAEED & BROTHERS,Kala Bagh,main bazar kalabagh,32.96377,71.55212,UFRKBG0001,2,SARGODHA,9:00 AM to 7:00 PM,9:00 AM to 7:00 PM,CLOSED,,1,85,
Khan Communication,PIRMAHAL,Ufone Franchise Madina chowk near Ittehad medical store Pir Mahal,30.766595,72.429823,UFRTTS0002,2,FAISALABAD,9:00 AM to 7:00 PM,9:00 AM to 7:00 PM,CLOSED,,1,86,
Munawar Telecom,Shahkot,Ward No 8 College Road Shahkot,31.575297,73.488841,UFRSHK0002,2,FAISALABAD,9:00 AM to 7:00 PM,9:00 AM to 7:00 PM,CLOSED,,1,87,
LK Sons Communication,Peshawar,Near Jan Hotal Opp Ghallagodam Kohat Road Peshawr,33.991981,71.560543,UFRPWR0007,5,PESHAWAR,9:00 AM to 7:00 PM,9:00 AM to 7:00 PM,CLOSED,,1,93,
HASHAAM COMMUNICATION,ATTOCK,UFone Franchise (UFRATK0001) Hashaam Communication opposite MCB Bank shop No 4 civil bazar burq road Attock,33.768336,72.354734,UFRATK0001,5,ISLAMABAD,9:00 AM to 7:00 PM,9:00 AM to 7:00 PM,CLOSED,,1,96,
Waqas Communication,Dargai,Ameen Plaza Near HBL bank main bazar Dargae,34.504018,71.89643,UFRDRG0001,5,PESHAWAR,9:00 AM to 7:00 PM,9:00 AM to 7:00 PM,CLOSED,,1,97,
ABSAAR COMMUNICATION,Timergara,Ziab City Centre Block B Timergara,34.494523,71.50255,UFRTMG0001,5,PESHAWAR,9:00 AM to 7:00 PM,9:00 AM to 7:00 PM,CLOSED,,1,98,
BB ENTERPRIZES,KALAR SYEDAN,Ufone franchise main GT road Rawat,33.495369,73.19631511,UFRKSD0001,5,ISLAMABAD,9:00 AM to 7:00 PM,9:00 AM to 7:00 PM,CLOSED,,1,100,
MALAKAND COMMUNICATION,Batkhela,NEAR NADRA OFFICE MAIN BAZAR BATKHELA,34.61,71.96,UFRBKH0001,5,PESHAWAR,9:00 AM to 7:00 PM,9:00 AM to 7:00 PM,CLOSED,,1,102,
JADOON COMMUNICATION,Peshawar,4-5 sidiqui mension near amin hotel hashtnagri peshawar city,34.015489,71.5823634,UFRPWR0004,5,PESHAWAR,9:00 AM to 7:00 PM,9:00 AM to 7:00 PM,CLOSED,,1,105,
SHAH NETWORK TRADES,Nowshera,SHOP 12 NOWSHERA CANTT,34.00566,71.99124,UFRNSH0001,5,PESHAWAR,9:00 AM to 7:00 PM,9:00 AM to 7:00 PM,CLOSED,,1,107,
SHAMOZAI COMMUNICATION,Charsada,Zafar Plaza Mardan road,34.9111,71.4454,UFRCDA0002,5,PESHAWAR,9:00 AM to 7:00 PM,9:00 AM to 7:00 PM,CLOSED,,1,108,
Friends Telecom,Bunair,MOHALLA DERA HUJRA P-O DAGGAR SHAL BANDI TEHSIL GAGAR BUNAIR,34.4996,72.4597,UFRBUN0004,5,PESHAWAR,9:00 AM to 7:00 PM,9:00 AM to 7:00 PM,CLOSED,,1,109,
KAKA KHEL TELECOM,Mardan,SHOP-25 THE MALL CANT PLAZA MARDAN,34.197921,72.03963,UFRMAR0001,5,PESHAWAR,9:00 AM to 7:00 PM,9:00 AM to 7:00 PM,CLOSED,,1,110,
ZAM ZAM COMMUNICATION,Sarei Norang,MAIN GT ROAD SRAI NAURANG,32.819067,70.782645,UFRSNG0001,5,PESHAWAR - KOHAT,9:00 AM to 7:00 PM,9:00 AM to 7:00 PM,CLOSED,,1,112,
shahid zaman & co,Kohat,alfalah plaza bannu road kohat,33.579235,71.443935,UFRKHT0002,5,PESHAWAR - KOHAT,9:00 AM to 7:00 PM,9:00 AM to 7:00 PM,CLOSED,,1,113,
khatak communication,Karak,Ghulam Market Karak,33.116537,71.096561,UFRKRK0001,5,PESHAWAR - KOHAT,9:00 AM to 7:00 PM,9:00 AM to 7:00 PM,CLOSED,,1,114,
B & J communication,Kohat,Shop No 9-10 Cantt market hangu road,33.590153,71.439135,UFRKHT0001,5,PESHAWAR - KOHAT,9:00 AM to 7:00 PM,9:00 AM to 7:00 PM,CLOSED,,1,115,
Muhammad Communication,Bannu,SHOP No 16-17-18 JAMAN ROAD BANNU CIT,32.987875,70.602178,UFRBNU0001,5,PESHAWAR - KOHAT,9:00 AM to 7:00 PM,9:00 AM to 7:00 PM,CLOSED,,1,116,
Ishfaq Communication,Bannu,Ufone Franchise Nazim Bazar Kurrum Pul,32.98541,70.6027,UFRBNU0002,5,PESHAWAR - KOHAT,9:00 AM to 7:00 PM,9:00 AM to 7:00 PM,CLOSED,,1,117,
Murshed Communication,D.I. Khan,OPP HAQ NAWAZ PARK CIRCULAR ROAD DIKHAN,31.825271,70.911271,UFRDIK0001,5,PESHAWAR - KOHAT,9:00 AM to 7:00 PM,9:00 AM to 7:00 PM,CLOSED,,1,118,
FSS COMMUNICATION,D.I. Khan,Near GF Durrani ClinicÂ CIRCULAR ROAD DIKHAN,31.820941,70.899621,UFRDIK0002,5,PESHAWAR - KOHAT,9:00 AM to 7:00 PM,9:00 AM to 7:00 PM,CLOSED,,1,119,
FRIENDS COMMUNICATION,Mansehra,Near Laddi Adda Shah ra -e- resham MansehraÂ 03335562333,34.331259,73.1980009,UFRMNH0002,5,ABBOTTABAD,9:00 AM to 7:00 PM,9:00 AM to 7:00 PM,CLOSED,,1,121,
Awan Communication,Ugi,opposite larri adda ugiÂ 0333-5022666,34.496651,73.0238211,UFRUGI0001,5,ABBOTTABAD,9:00 AM to 7:00 PM,9:00 AM to 7:00 PM,CLOSED,,1,122,
,Islamabad,OFFICE NO 1 Orakzai Palza Lehtrar Road Khanna Pull Islamabad,33.629822,73.119168,UFRISB0010,5,ISLAMABAD,9:00 AM to 7:00 PM,9:00 AM to 7:00 PM,CLOSED,,1,125,
Sangum Communication,Bagh,Sangam CommunicationsMain Dhulli RoadNear Choki AddaBagh AJK,33.97324,73.79191,UFRBGH0002,5,AJK,9:00 AM to 7:00 PM,9:00 AM to 7:00 PM,CLOSED,,1,126,
G&F Enterprises,Thall,Gt raod thall Malak asif Noor sarai Tehsill thall Distt hangu,33.369341,70.544342,UFRTHL0001,5,PESHAWAR - KOHAT,9:00 AM to 7:00 PM,9:00 AM to 7:00 PM,CLOSED,,1,129,
Samir Communication,Parachinar,Zawar Market nasir plaza chowk Zarbandi Parachinar,33.901123,70.086044,UFRPRC0001,5,PESHAWAR - KOHAT,9:00 AM to 7:00 PM,9:00 AM to 7:00 PM,CLOSED,,1,130,
NORTHERN ENTERPRISES,Skardu,Alamdar chowk SkarduÂ Â 0333-5586465,35.289541,75.6348809,UFRSDU0001,5,ABBOTTABAD,9:00 AM to 7:00 PM,9:00 AM to 7:00 PM,CLOSED,,1,131,
MILLAT COMM,Gilgit,Shop No A 4 Al-Abbas commercial center Khomer Chowk Gilgit,35.881911,74.4642861,UFRGLT0001,5,ABBOTTABAD,9:00 AM to 7:00 PM,9:00 AM to 7:00 PM,CLOSED,,1,132,
SUPER SHAHEEN SERVICES,Umerkot,OPPOSITE SHELL PETROL PUMP ALLAH WALA CHOWK UMERKOT,25.365819,69.7353758,UFRUKT0001,4,HYDERABAD,9:00 AM to 7:00 PM,9:00 AM to 7:00 PM,CLOSED,,1,134,
FA COMMUNICATION,Digri,MAIN STATION ROAD NEAR ALLAH WALA CHOWK DIGRI,25.15556,69.11139,UFRDGI0001,4,HYDERABAD,9:00 AM to 7:00 PM,9:00 AM to 7:00 PM,CLOSED,,1,135,
M.SALEEM COMMUNICATION,Kunri,FOTA ROAD KUNRI,25.17725,69.56485,UFRKNR0001,4,HYDERABAD,9:00 AM to 7:00 PM,9:00 AM to 7:00 PM,CLOSED,,1,136,
SATYANI ELECTRONICS,Mithi,OPPOSITE MITHI PRESS CLUB MITHI,24.73435,69.797316,UFRMTH0001,4,HYDERABAD,9:00 AM to 7:00 PM,9:00 AM to 7:00 PM,CLOSED,,1,137,
BEST BARGAIN,Karachi,SHOP NO 8 KUTYANA CENTRE PLOT NO JM 371 GURU MANDIR,24.879941,67.040099,UFRKHI0006,4,KARACHI,9:00 AM to 7:00 PM,9:00 AM to 7:00 PM,CLOSED,,1,139,
S. K. INTERNATIONAL,Karachi,UFONE FRANCHISE SHOP No 5 SELANI CENTER PLOT NO. 442 K.C.H.S. BLOCK 7-8 KARACHI,24.883816,67.08210915,UFRKHI0020,4,KARACHI,9:00 AM to 7:00 PM,9:00 AM to 7:00 PM,CLOSED,,1,141,
SHALIMAR COMMUNICATION,Karachi,PLOT No 5-3C AREA NEAR:POST OFFICEDAAKHANA LIAQATABAD KARACHI,24.899598,67.0441378,UFRKHI0028,4,KARACHI,9:00 AM to 7:00 PM,9:00 AM to 7:00 PM,CLOSED,,1,142,
IMTIAZ COMMUNICATION,Nawabshah,SHOP No 5-A POLICE LINE SHOPPING CENTER BUSHERI ROAD NAWABSHAH,26.250134,68.406084,UFRNAH0001,4,HYDERABAD,9:00 AM to 7:00 PM,9:00 AM to 7:00 PM,CLOSED,,1,145,
SUPER WORLD COMMUNICATION,Nawabshah,SHOP No 648 CHAKRA BAZAAR NEAR MCB. NAWABSHAH,26.244365,68.4097101,UFRNAH0002,4,HYDERABAD,9:00 AM to 7:00 PM,9:00 AM to 7:00 PM,CLOSED,,1,146,
MF MADINA COMMUNICATION,Shahdadpur,STATION ROAD SHAHDADPUR,25.92513,68.6219962,UFRSDP0001,4,HYDERABAD,9:00 AM to 7:00 PM,9:00 AM to 7:00 PM,CLOSED,,1,149,
KHAWAJA COMMUNICATION,Loralai,UFONE FRANCHISE TEHSIL ROADÂ LORALAI,30.3696,68.5979,UFRLOR0001,4,QUETTA,9:00 AM to 7:00 PM,9:00 AM to 7:00 PM,CLOSED,,1,154,
NEHAL TRADERS,Khuzdar,UFONE FRANCHISE MIR CHAKKER KHAN ROADÂ KHUZDAR,27.8067,66.6091,UFRKZR0001,4,QUETTA,9:00 AM to 7:00 PM,9:00 AM to 7:00 PM,CLOSED,,1,156,
KECH COMMUNICATION,Turbat,UFONE FRANCHISE NEAR ABL BANK MAIN ROAD TURBAT KECH,26.005512,63.0587628,UFRTBT0001,4,QUETTA,9:00 AM to 7:00 PM,9:00 AM to 7:00 PM,CLOSED,,1,157,
BILAL COMMUNICATION,Pishin,UFONE FRANCHISE GOSHT MARKET BAND ROAD PISHIN,30.58589,67.00392,UFRPSN0001,4,QUETTA,9:00 AM to 7:00 PM,9:00 AM to 7:00 PM,CLOSED,,1,158,
BEHROOZ COMMUNICATION,Kalat,UFONE FRANCHISE HOSPITAL ROAD KALAT NEAR CIVIL HOSPITAL KALAT,29.02156,66.59103,UFRKLT0001,4,QUETTA,9:00 AM to 7:00 PM,9:00 AM to 7:00 PM,CLOSED,,1,159,
UROOJ COMMUNICATION,Sibi,UFONE FRANCHISE NEXT TO KHUSHALI BANK IQBAL ROAD SIBI,29.55321,67.88082,UFRSBI0001,4,QUETTA,9:00 AM to 7:00 PM,9:00 AM to 7:00 PM,CLOSED,,1,160,
SAJID & CHAKAR COMMUNICATION,Panjgoor,HBL BANK ROAD CHITKAN BAZAR PANJGOOR,26.972257,64.090159,UFRPJR0001,4,QUETTA,9:00 AM to 7:00 PM,9:00 AM to 7:00 PM,CLOSED,,1,161,
NOOR COMMUNICATION,Dalbandin,UFONE FRANCHISE MAIN RCD HIGHWAY ( LONDON ROAD ) DALBANDIN,28.88333,64.41667,UFRDBN0001,4,QUETTA,9:00 AM to 7:00 PM,9:00 AM to 7:00 PM,CLOSED,,1,164,
NASEER AHMED BACHA KHAN,Chaman,UFONE FRANCHISE COLLEGE ROADÂ CHAMAN,30.925305,66.446531,UFRCHM0001,4,QUETTA,9:00 AM to 7:00 PM,9:00 AM to 7:00 PM,CLOSED,,1,165,
MIN COMMUNICATION,Kharan,UFONE FRANCHISE QUETTA ROAD KHARAN,28.58333,65.41667,UFRKRN0001,4,QUETTA,9:00 AM to 7:00 PM,9:00 AM to 7:00 PM,CLOSED,,1,166,
ZAKRIA ENTERPRISES,Qila Saifullah,Zhob Road Popposite DC Office Jeddah Market Qillah Saif Ullah,30.7033,68.3697,UFRKSF0001,4,QUETTA,9:00 AM to 7:00 PM,9:00 AM to 7:00 PM,CLOSED,,1,167,
AL-YOUSAF COMMUNICATION,Zhob,UFONE FRANCHISE KHAWAJA KHAIL ROAD NEAR JAMA MASJID OPP AIOU ZHOB,31.344846,69.471594,UFRZHB0001,4,QUETTA,9:00 AM to 7:00 PM,9:00 AM to 7:00 PM,CLOSED,,1,168,
SAHIL COMMUNICATION,Gawader,NEAR NATIONAL BANK AIRPORT ROAD GAWADER,25.21963,62.33533,UFRGWD0001,4,QUETTA,9:00 AM to 7:00 PM,9:00 AM to 7:00 PM,CLOSED,,1,169,
SHAHSHAN COMMUNICATION,Mastung,UFONE FRANCHISE MASJID ROAD MASTUNG,29.798965,66.846666,UFRMTG0001,4,QUETTA,9:00 AM to 7:00 PM,9:00 AM to 7:00 PM,CLOSED,,1,170,
NOSHKAL COMMUNICATION,Noshki,UFONE FRANCHISE AL JAHANGIR MARKET JINNAH ROAD NOSHKI,29.551375,66.010668,UFRNSK0001,4,QUETTA,9:00 AM to 7:00 PM,9:00 AM to 7:00 PM,CLOSED,,1,171,
PALACE TELECOM,Jacobabad,QUAID E AZAM ROAD NEAR DOLPHIN BAKERY JACOBABAD,28.2827,68.4334,UFRJCB0001,4,SUKKUR,9:00 AM to 7:00 PM,9:00 AM to 7:00 PM,CLOSED,,1,173,
PEARL COMMUNICATION,Larkana,SHOP No 01 OPPOSITE AL HASEEB HOTEL MAIN PAKISTAN CHOWK LARKANA,27.5529,68.21535,UFRLRK0002,4,SUKKUR,9:00 AM to 7:00 PM,9:00 AM to 7:00 PM,CLOSED,,1,175,
CITY MOBILE COMMUNICATION,Shahdad Kot,SHOP No 02 NEAR JS BANK STATION ROAD SHAHDADKOT,27.848312,67.9106318,UFRSHT0001,4,SUKKUR,9:00 AM to 7:00 PM,9:00 AM to 7:00 PM,CLOSED,,1,176,
Abdul Shakoor Arain,Sukkur,Shop C-79 Opposite Dharmsala Near Clock Tower Station Road Sukkur,27.694853,68.862309,UFRSUK0001,4,SUKKUR,9:00 AM to 7:00 PM,9:00 AM to 7:00 PM,CLOSED,,1,177,
ZAHID COMMUNICATION,Dera Murad Jamali,NEAR SHAH PSO PETROL PUMP DERA MURAD JAMALI,28.5436,68.22224,UFRDMJ0001,4,SUKKUR,9:00 AM to 7:00 PM,9:00 AM to 7:00 PM,CLOSED,,1,179,
MAZARI COMMUNICATION,Kashmore,MAIN INDUS HIGHWAY OPPOSITE SHELL PETROL PUMP KASHMORE,28.442517,69.5973367,UFRKSE0001,4,SUKKUR,9:00 AM to 7:00 PM,9:00 AM to 7:00 PM,CLOSED,,1,181,
RAJA COMMUNICATION,Usta Muhammad,SHOP No 04 NEAR UBL BANK CHOWK M.A JINNAH ROAD USTA MOHAMMAD,28.178936,68.0453267,UFRUMD0001,4,SUKKUR,9:00 AM to 7:00 PM,9:00 AM to 7:00 PM,CLOSED,,1,182,
BUGTI COMMUNICATION,SUI,NEAR BUGTI PETROLIUM SERVICES MUHAMMAD COLONY SUI,28.639905,69.19108,UFRPNL0001,4,SUKKUR,9:00 AM to 7:00 PM,9:00 AM to 7:00 PM,CLOSED,,1,184,
MOBILE WORLD,Karachi,SHOP No 1 & 2 JAWAID ARCADE BLOCK-17 NEAR JOHAR CHOWRANGI GULISTAN-E-JOHAR KARACHI,24.9115,67.1244,UFRKHI0004,4,KARACHI,9:00 AM to 7:00 PM,9:00 AM to 7:00 PM,CLOSED,,1,185,
WAQAS TRADERS,Karachi,SHOP No 8 SHAH FAISAL PLAZA BLOCK B NORTH NAZIMABAD OPPOSITE DILPASANDÂ SWEETS MATRIC BOARD OFFICE KARACHI,24.92575,67.03356,UFRKHI0014,4,KARACHI,9:00 AM to 7:00 PM,9:00 AM to 7:00 PM,CLOSED,,1,186,
ISMAIL DURRANI ENTERPRISES,CHAGHI,ABDUL GHAYAS DURRANI,28.9804,62.4504,UFRCGI0001,4,QUETTA,9:00 AM to 7:00 PM,9:00 AM to 7:00 PM,CLOSED,,1,190,
Pakistan Group,Sahiwal,164 A Hali Road High Street Sahiwal,30.66817,73.10746,,0,,9:00 AM to 7:00 PM,9:00 AM to 7:00 PM,CLOSED,,1,193,
U Telecom,Hawaili Lakha,Near ABL Pakpattan Road Hawaili Lakha,30.4487,73.69275,UFRSAH0001,0,,9:00 AM to 7:00 PM,9:00 AM to 7:00 PM,CLOSED,,1,195,
Zaman Communication,Arifwala,Muhammadi Chowk Rahim Plaza Arifwala,30.29785,73.05823,,0,,9:00 AM to 7:00 PM,9:00 AM to 7:00 PM,CLOSED,,1,196,
Friends Telecom,Burewala,Link Joyia Road Burewala,30.15913,72.68418,UFRHLK0001,0,,9:00 AM to 7:00 PM,9:00 AM to 7:00 PM,CLOSED,,1,197,
Javaid A. Burki,Sheikhupura,Near Israr Colony Main Lahore Sargodha Road Sheikhpura,31.711077,73.990698,UFRAWA0001,0,,9:00 AM to 7:00 PM,9:00 AM to 7:00 PM,CLOSED,,1,200,
Aurangzeb Wahlah,Lahore,N 127 R 5-3-B-111 Near Social Security Hospital G-T Road Shahdara,31.616109,74.290351,UFRBWA0002,0,,9:00 AM to 7:00 PM,9:00 AM to 7:00 PM,CLOSED,,1,202,
Riz Tel,Lahore,Shop 54-A Ravi Road Near Total Petrol Pump Sharoze Hotel Lahore,31.59428,74.30263,UFRSHE0001,0,,9:00 AM to 7:00 PM,9:00 AM to 7:00 PM,CLOSED,,1,211,
Tanveer Aslam,Lahore,UGS 85 Opposite Adil Hospital Rafi Plaza Main Boulevard Dhal Lahore,31.491461,74.377395,,0,,9:00 AM to 7:00 PM,9:00 AM to 7:00 PM,CLOSED,,1,212,
Technology Bux,Lahore,Plot 587 Near Mob Saddar Lahore Cantt,31.549915,74.37782,UFRLHE0019,0,,9:00 AM to 7:00 PM,9:00 AM to 7:00 PM,CLOSED,,1,213,
Mohsin Aslam,Lahore,Ufone Franchise Shop G-12 Rehman Towers Near Jalal Sons Main Market Gulberg-II Lahore,31.523602,74.346167,,0,,9:00 AM to 7:00 PM,9:00 AM to 7:00 PM,CLOSED,,1,217,
Pakeeza Communication,Lahore,Office 19 Ali Town Raiwind Road Thokar Niaz Baig Lahore,31.46363,74.24432,,0,,9:00 AM to 7:00 PM,9:00 AM to 7:00 PM,CLOSED,,1,219,
Rao Telecom,Raiwind,292 Railway Road Raiwind,31.248971,74.219119,,0,,9:00 AM to 7:00 PM,9:00 AM to 7:00 PM,CLOSED,,1,220,
Babar Communications,Bhai Pheru,Multan Road Opposite Police Station Phool Nagar Bhai Pheru,31.20601,73.93784,UFRLHE0002,0,,9:00 AM to 7:00 PM,9:00 AM to 7:00 PM,CLOSED,,1,221,
Fast Communication,Patoki,Allama Iqbal Road Near Baldia Office Pattoki,31.02195,73.85198,UFRCHU0001,0,,9:00 AM to 7:00 PM,9:00 AM to 7:00 PM,CLOSED,,1,222,
Mian Ehsan Mobile Centre,Lalamusa,Chandni Chowk Mall Road Lalamusa,32.69926,73.95521,UFRBPR0001,0,,9:00 AM to 7:00 PM,9:00 AM to 7:00 PM,CLOSED,,1,223,
Star Mobile,Dinga,Fawara Chowk Dinga,32.645074,73.727411,UFRPTI0001,0,,9:00 AM to 7:00 PM,9:00 AM to 7:00 PM,CLOSED,,1,224,
Maira Communication,Jalal Pur Jattan,"UFONE FRANCHISE, CIRCULAR ROAD, BEFORE CHANDNI CHOWK, JALAL PUR JATTAN",32.638938,74.19753,UFRLAL0001,0,,9:00 AM to 7:00 PM,9:00 AM to 7:00 PM,CLOSED,,1,225,
KK Traders,Mandi Bahauddin,Main lari adda M.B Din,32.35042,73.29032,,0,,9:00 AM to 7:00 PM,9:00 AM to 7:00 PM,CLOSED,,1,226,
Asif Telecom,Gujrat,Khawajgaan Chowk Gujrat,32.57651,74.07909,UFRGRT0006,0,,9:00 AM to 7:00 PM,9:00 AM to 7:00 PM,CLOSED,,1,227,
A & J Communication,Sialkot,Muhallah Taj Pura Near Bakemaster Dara Arian Sialkot,32.494559,74.531271,UFRMBD0001,0,,9:00 AM to 7:00 PM,9:00 AM to 7:00 PM,CLOSED,,1,228,
S I Communication Enterprises,Sambrial,Wazirabad Road Near Mandi Sambrial,32.47827,74.34936,UFRGRT0003,0,,9:00 AM to 7:00 PM,9:00 AM to 7:00 PM,CLOSED,,1,229,
Hassan Noroz & Co,Pasroor,Capt Naseem Hayat Shaheed Road Near Nadra Office Pasroor,32.26176,74.65667,,0,,9:00 AM to 7:00 PM,9:00 AM to 7:00 PM,CLOSED,,1,231,
AHJ ENTERPRISES,Gujranwala,SUI Gas Chowk Opposite UBL Bank DC Road Gujranwala,32.185303,74.187345,UFRSBR0001,0,,9:00 AM to 7:00 PM,9:00 AM to 7:00 PM,CLOSED,,1,232,
Mehreen Telecom,Narowal,Chowk Zafarwal Bypass Near Bus Stand Narowal,32.109194,74.872471,UFRPSR0001,0,,9:00 AM to 7:00 PM,9:00 AM to 7:00 PM,CLOSED,,1,236,
Saeed & Brothers,Kala Bagh,Opposite Bor Bangla Bor Bangla Road Kala Bagh,32.95921,71.5453,,5,,9:00 AM to 7:00 PM,9:00 AM to 7:00 PM,CLOSED,,1,239,
Rehmat Telecom,Nowshera,Takbeer Chowk District Khushab Noshera,32.572338,72.157993,,0,,9:00 AM to 7:00 PM,9:00 AM to 7:00 PM,CLOSED,,1,241,
Malik Telecom,Bhera,Malik Telecom Circular Road Chak Wala Darwaza Near MCB Bhera,32.479818,72.911963,,0,,9:00 AM to 7:00 PM,9:00 AM to 7:00 PM,CLOSED,,1,244,
Global Communication,Jauharabad,College Road Near Khushali Bank Jauharabad,32.287015,72.285266,,0,,9:00 AM to 7:00 PM,9:00 AM to 7:00 PM,CLOSED,,1,245,
Al Hamd Communication,Piplan,Al Hamd Communication Near Ghala Mandi City Piplan,32.288227,71.369476,,0,,9:00 AM to 7:00 PM,9:00 AM to 7:00 PM,CLOSED,,1,246,
Hashmi Telecom,Darya Khan,Main?Bazar Main?Hashmi?Chowk Darya Khan,31.788113,71.10762,,0,,9:00 AM to 7:00 PM,9:00 AM to 7:00 PM,CLOSED,,1,247,
Ameena Telecomm,Pindi Bhattian,Main Hafizabad Road Pindi Bhatian,31.903745,73.271311,,0,,9:00 AM to 7:00 PM,9:00 AM to 7:00 PM,CLOSED,,1,248,
Tabassum Telecom,Sangla Hill,House 1749 - Shops On Lower Portion - Near Masjid Tallabwali ?Main Circular Road Tehsil Sangla Hill ?District Nankana Sahab,31.71345,73.3749,,0,,9:00 AM to 7:00 PM,9:00 AM to 7:00 PM,CLOSED,,1,249,
Awan Mobiles,Bhakkar,Near Furniture Market Jhang Road Bhakkar,31.625923,71.066628,,0,,9:00 AM to 7:00 PM,9:00 AM to 7:00 PM,CLOSED,,1,250,
Ashraf Communication,Karor Lal Esan,Chundi Morr Railway Road Opposite Bop Karor Lal Eisan,31.220667,70.953675,,0,,9:00 AM to 7:00 PM,9:00 AM to 7:00 PM,CLOSED,,1,252,
Makkah Electronics,Toba Tek Singh,"Allama Iqbal Road, Jhoolay Wala Chowk, Toba Tek Singh",30.97081,72.4774,,0,,9:00 AM to 7:00 PM,9:00 AM to 7:00 PM,CLOSED,,1,253,
2 Star Communication,Rajhana,Main Toba Road Near UBL Bank Rajana,30.854926,72.547973,,0,,9:00 AM to 7:00 PM,9:00 AM to 7:00 PM,CLOSED,,1,260,
Al Raza Telecomm,Shor Kot,Main Jhang Multan Road Sabir Chowk Near Yamaha Showroom Shorkot City,30.83387,72.07841,UFRTTS0001,0,Faisalabad,9:00 AM to 7:00 PM,9:00 AM to 7:00 PM,CLOSED,,1,263,
Mashallah Linkers,Ahmed pur Sial,Opposite Taxi Stand Ahamd Pur Sial,30.683861,71.761294,,0,,9:00 AM to 7:00 PM,9:00 AM to 7:00 PM,CLOSED,,1,264,
Usman Communication,Kot Addu,G-T Road Opposite Ubl Kot Addu,30.470827,70.965234,,0,,9:00 AM to 7:00 PM,9:00 AM to 7:00 PM,CLOSED,,1,266,
Bilaj Telecom,Khurrianwala,"Sheikhupura Road, Near BOP, Khurrianwala, Faisalabad",31.4975,73.2742,,0,,9:00 AM to 7:00 PM,9:00 AM to 7:00 PM,CLOSED,,1,267,
Rana Communication,Abdul Hakim,Near UBL Bank Multan Road Abdul Hakim,30.55147,72.12486,,0,,9:00 AM to 7:00 PM,9:00 AM to 7:00 PM,CLOSED,,1,268,
Ali Communication,D.G. Khan,Fareedi Bazar Near General Bus Stand DG Khan,30.055,70.6417,,0,,9:00 AM to 7:00 PM,9:00 AM to 7:00 PM,CLOSED,,1,269,
Buzdar Communication,Muzaffer Garh,Multan Road Chowk Qureshi Tehsil and District Muzaffargarh,30.075079,70.9634708,,0,,9:00 AM to 7:00 PM,9:00 AM to 7:00 PM,CLOSED,,1,271,
Tahir Communication,Taunsa Sharif,Near Bop Vohova Road Taunsa,30.70989,70.65171,,0,,9:00 AM to 7:00 PM,9:00 AM to 7:00 PM,CLOSED,,1,277,
Dg Communication,D.G. Khan,Block 5 College Road DG Khan,30.05293,70.636611,UFRMGR0003,0,,9:00 AM to 7:00 PM,9:00 AM to 7:00 PM,CLOSED,,1,280,
Al-Hamdullah Telecommunication,Jampur,Opposite Shell Petrol Pump Dera Road Jampur,29.64662,70.59324,,0,,9:00 AM to 7:00 PM,9:00 AM to 7:00 PM,CLOSED,,1,281,
Rasheed Telecom,Lodhran,Multan Road?Opposite Bank Of Punjab Lodhran,29.53721,71.630779,,0,,9:00 AM to 7:00 PM,9:00 AM to 7:00 PM,CLOSED,,1,284,
Ahmed Communication,Kot Chutta,Opposite Childeren Clinic Jampur Road Kot Chutta,29.888161,70.652649,,0,,9:00 AM to 7:00 PM,9:00 AM to 7:00 PM,CLOSED,,1,285,
Fazil Pur Communication,Fazil Pur,Ali UL Murtaza Road Near Ufone Tower Fazil Pur,29.2935,70.4552,,0,,9:00 AM to 7:00 PM,9:00 AM to 7:00 PM,CLOSED,,1,286,
U Communicator,Bahawalpur,Shop 2 Faiz Plaza Circular Road Bahawalpur,29.395244,71.683221,,0,,9:00 AM to 7:00 PM,9:00 AM to 7:00 PM,CLOSED,,1,287,
Langowal Communication,Bahawalpur,Opposite City Centre DC Office Chowk Bahawalpur,29.39303,71.68983,,0,,9:00 AM to 7:00 PM,9:00 AM to 7:00 PM,CLOSED,,1,288,
SUT Bismillah,Rajanpur,Near State Life Insurance Dara Machi Wala Rajanpur,29.09983,70.32386,,0,,9:00 AM to 7:00 PM,9:00 AM to 7:00 PM,CLOSED,,1,289,
ZS Telecom,Khanpur,Ufone Franchise Opposite Mobilink Franchise City Centre Khanpur,28.65293,70.657235,,0,,9:00 AM to 7:00 PM,9:00 AM to 7:00 PM,CLOSED,,1,290,
Essa Telecom,Sadiq Abad,Allama Iqbal Town Opposite Tma Sadiq Abad,28.300394,70.135034,,0,,9:00 AM to 7:00 PM,9:00 AM to 7:00 PM,CLOSED,,1,291,
Subhan Telecom,Rajanpur,Chowk Allah Bad Near Faisal Bank Rajanpur,29.105214,70.3364992,,0,,9:00 AM to 7:00 PM,9:00 AM to 7:00 PM,CLOSED,,1,292,
Millat Comm,Gilgit,Ufone Franchise near Rupal Inn hotel Main Shahrah e Quaid Azam Road Gilgit,35.91023,74.33756,,0,,9:00 AM to 7:00 PM,9:00 AM to 7:00 PM,CLOSED,,1,295,
Chitral Communication,Chitral,DCO Office Road Chitral,35.852355,71.785696,,0,,9:00 AM to 7:00 PM,9:00 AM to 7:00 PM,CLOSED,,1,297,
Northern Enterprises,Skardu,Alamdar Chowk Skardu,35.289939,75.641888,UFRRJN0003,0,,9:00 AM to 7:00 PM,9:00 AM to 7:00 PM,CLOSED,,1,298,
Shamozai Communication,Charsada,Zafar Plaza Mardan Road,34.1532,71.748975,,0,,9:00 AM to 7:00 PM,9:00 AM to 7:00 PM,CLOSED,,1,299,
Malakand Communication,Batkhela,Near Nadra Office Main Bazar Batkhela,34.613694,71.961109,,0,,9:00 AM to 7:00 PM,9:00 AM to 7:00 PM,CLOSED,,1,300,
Absaar Communication,Timergara,Ziab City Centre Block-B Timergara,34.829551,71.840622,,0,,9:00 AM to 7:00 PM,9:00 AM to 7:00 PM,CLOSED,,1,301,
Buner Communication,Buner,Pirbaba Road Near Allied Bank,34.47978,72.4828,,0,,9:00 AM to 7:00 PM,9:00 AM to 7:00 PM,CLOSED,,1,302,
Friends Telecom,Shinkiari,Almakkah Market Near NBP Main Shahra-e-Resham Shinkiari,34.469439,73.271137,,0,,9:00 AM to 7:00 PM,9:00 AM to 7:00 PM,CLOSED,,1,305,
Yousafzai Communication,Katlang (Mardan),Al Taj Trade Center Main Bazar Katlang,34.213475,72.042487,,0,,9:00 AM to 7:00 PM,9:00 AM to 7:00 PM,CLOSED,,1,307,
Friends Communication,Mansehra,Sulatan Plaza Opposite Nadra office Near Laddi Adda Shahra-e-Resham Mansehra,34.357366,73.208395,,0,,9:00 AM to 7:00 PM,9:00 AM to 7:00 PM,CLOSED,,1,308,
Madina Telecom,Shabqadar,Azam Tower Matta Road Shabqadar Bazar Shabqadar,34.222992,71.565392,UFRSNR0001,0,,9:00 AM to 7:00 PM,9:00 AM to 7:00 PM,CLOSED,,1,309,
Jadoon Communication,Peshawar,4-5 Sidiqui Mension Near Amin Hotel Hashtnagri Peshawar City,34.01543,71.58274,,0,,9:00 AM to 7:00 PM,9:00 AM to 7:00 PM,CLOSED,,1,311,
Haroon Trader,Peshawar,Ufone Franchise Office Main Tehkal Stop Near Mian Khan General Store Peshawar,34.00826,71.51742,,0,,9:00 AM to 7:00 PM,9:00 AM to 7:00 PM,CLOSED,,1,312,
Shah Network Trades,Nowshera,Shop 12 Nowshera Cantt,34.00524,71.98797,,0,,9:00 AM to 7:00 PM,9:00 AM to 7:00 PM,CLOSED,,1,313,
LK Sons Communication,Peshawar,Near Jan Bangash Hotel Kohat Road,34.004329,71.560291,,0,,9:00 AM to 7:00 PM,9:00 AM to 7:00 PM,CLOSED,,1,317,
Khyber Enterprises,Jehangira,Khyber Trade Centre G-T Road Jahangira,33.96482,72.20495,,0,,9:00 AM to 7:00 PM,9:00 AM to 7:00 PM,CLOSED,,1,319,
BB COMMUNICATION,Rawalpindi,Office no 29-C-33 Ufone franchise near jaba puli chour chowk misrial road Rawalpindi,33.6046,73.0081,,0,,9:00 AM to 7:00 PM,9:00 AM to 7:00 PM,CLOSED,,1,320,
Rawalkot Communication,Rawalakot,CMH Bypass Road Near Shalimar Guest House Rawalakot,33.8578,73.7568,,0,,9:00 AM to 7:00 PM,9:00 AM to 7:00 PM,CLOSED,,1,323,
Televoice Communication,Islamabad,Ufone Franchise Opposite Army Camp Near CSD and Post Office Main Murree Road Bara Kahu Islamabad,33.70709,73.089317,,5,PESHWAR,9:00 AM to 7:00 PM,9:00 AM to 7:00 PM,CLOSED,,1,325,
Ali Communication,Rawalpindi,"Ufone Franchise Near Bilal Hospital Opposite Zong Franchise Lehtrar Road Afandi Colony, Sadiqabad Rawalpindi",33.633137,73.080429,UFRRWP0008,0,,9:00 AM to 7:00 PM,9:00 AM to 7:00 PM,CLOSED,,1,326,
Sarhad Communication,Rawalpindi,Sarhad Communication 25 Pindi Clud Building The Mall Rawalpindi,33.600546,73.061775,,0,,9:00 AM to 7:00 PM,9:00 AM to 7:00 PM,CLOSED,,1,327,
B & J Communication,Kohat,Shop 9-10 Cantt Market Hangu Road,33.590214,71.439375,,0,,9:00 AM to 7:00 PM,9:00 AM to 7:00 PM,CLOSED,,1,329,
Shahid Zaman & Co,Kohat,Alfalah Plaza Bannu Road Kohat,33.585528,71.443272,,0,,9:00 AM to 7:00 PM,9:00 AM to 7:00 PM,CLOSED,,1,331,
Malik Enterprises,Rawalpindi,"Ufone franchise, Shop no 6-7, Bilal Arcade II, Pakistan town Phase II , PWD Rawalpindi",33.5671,73.1382,,0,,9:00 AM to 7:00 PM,9:00 AM to 7:00 PM,CLOSED,,1,335,
Orakzai & Brothers,Hangu,Muslim Abad Kohat Road Hangu,33.537306,71.072014,,0,,9:00 AM to 7:00 PM,9:00 AM to 7:00 PM,CLOSED,,1,337,
Friends Enterprises,Rawalpindi,House CB-335 Dhamial Road Opposite Baba Gohar Ziarat Rawalpindi,33.572495,73.0387991,,0,,9:00 AM to 7:00 PM,9:00 AM to 7:00 PM,CLOSED,,1,338,
Al-Shahid Communication,Hangu,Near Adda Masjid Thall Road Hangu,33.527606,71.056453,,0,,9:00 AM to 7:00 PM,9:00 AM to 7:00 PM,CLOSED,,1,339,
Awami Multi Services,Kotli,Ufone Franchise Near Minhaj Ul Quran Office Opposite Exchange Road Punch Road Kotli,33.51893,73.90519,,0,,9:00 AM to 7:00 PM,9:00 AM to 7:00 PM,CLOSED,,1,340,
BB Enterprizes,Kalar Syedan,Ufone Franchise Near UBL Bank Main G-T Road Rawat Islamabad,33.50259,73.19377,,0,,9:00 AM to 7:00 PM,9:00 AM to 7:00 PM,CLOSED,,1,341,
G&F Enterprises,Thall,G-T Road Thall Malak Asif Noor Sarai Tehsill Thall Distt Hangu,33.364778,70.548917,,0,,9:00 AM to 7:00 PM,9:00 AM to 7:00 PM,CLOSED,,1,342,
Khatak Communication,Karak,Ghulam Market Main Bazar,33.0659,71.0547,,0,,9:00 AM to 7:00 PM,9:00 AM to 7:00 PM,CLOSED,,1,343,
Ishfaq Communication,Bannu,Near Kohat Chungi Bannu,32.993972,70.614478,,0,,9:00 AM to 7:00 PM,9:00 AM to 7:00 PM,CLOSED,,1,344,
Muhammad Communication,Bannu,Shop 16-17-18 Jaman Road Bannu City,32.987867,70.602168,,0,,9:00 AM to 7:00 PM,9:00 AM to 7:00 PM,CLOSED,,1,345,
Zam Zam Communication,Lakkimarwat,Main G-T Road Srai Naurang,32.824188,70.7835065,,0,,9:00 AM to 7:00 PM,9:00 AM to 7:00 PM,CLOSED,,1,346,
SKN Communication,Kharian,Moeen Ud Din Shah (Ufone Franchise) Basement Noor Plaza Gulyana Road Kharian,32.81,73.869,,0,,9:00 AM to 7:00 PM,9:00 AM to 7:00 PM,CLOSED,,1,347,
Murshed Communication,D.I. Khan,Opposite Girls College North Circular Road DI Khan,31.837,70.903,,0,,9:00 AM to 7:00 PM,9:00 AM to 7:00 PM,CLOSED,,1,348,
FSS Communication,D.I. Khan,Near G F Durrani Clinic North Circular Road DI Khan,31.835,70.907,,0,,9:00 AM to 7:00 PM,9:00 AM to 7:00 PM,CLOSED,,1,353,
Friends Telecom,Buner,Mira Khan Plaza Daggar Pull Opposite Dr-Gulnaz Hospital Bunair,34.4996,72.4597,,0,,9:00 AM to 7:00 PM,9:00 AM to 7:00 PM,CLOSED,,1,354,
Samir Communication,Parachinar,Malik Zawar Market Nazar Bandi Chowk Opposite Eidhi Park Parachinar Kurram Agency,33.9,70.1,,0,,9:00 AM to 7:00 PM,9:00 AM to 7:00 PM,CLOSED,,1,357,
Lambra Telecom,Islamabad,Office 1 Orakzai Palza Lehtrar Road Khanna Pull Islamabad,33.629543,73.117016,,0,,9:00 AM to 7:00 PM,9:00 AM to 7:00 PM,CLOSED,,1,358,
Hamza Telecom,Bajour Agency,Main Bazar Khar By Pas Road Near Khyber Bank Bajour Agency,34.73,71.52,,0,,9:00 AM to 7:00 PM,9:00 AM to 7:00 PM,CLOSED,,1,360,
Zia Communication,Tank,Shop 9 Shah Iran Market Main Bazar Tank,32.21,70.38,,0,,9:00 AM to 7:00 PM,9:00 AM to 7:00 PM,CLOSED,,1,362,
Waqas Communication,Dargai,Ameen Plaza Near HBL Bank Main Bazar Dargae,32.98,70.62,,0,,9:00 AM to 7:00 PM,9:00 AM to 7:00 PM,CLOSED,,1,363,
Farman Brother,Bannu,Ufone Franchise Norang Road Near DHQ Hospital Bannu,32.9798,70.6177,,0,,9:00 AM to 7:00 PM,9:00 AM to 7:00 PM,CLOSED,,1,364,
Haiwad Enterprises,Swabi,Swabi Telecom Mardan Road Swabi,34.127269,72.4720563,,0,,9:00 AM to 7:00 PM,9:00 AM to 7:00 PM,CLOSED,,1,365,
Al-Yousaf Communication,Zhob,Ufone Franchise Khawaja Khail Road Near Jama Masjid Opposite AIOU Zhob,31.344846,69.471594,,0,,9:00 AM to 7:00 PM,9:00 AM to 7:00 PM,CLOSED,,1,366,
Naseer Ahmed Bacha Khan,Chaman,Ufone Franchise College Road Chaman,30.925305,66.446531,,0,,9:00 AM to 7:00 PM,9:00 AM to 7:00 PM,CLOSED,,1,367,
Khawaja Communication,Lorlae,Tehsil Road Opposite Noorani Masjid Loralae,30.372424,68.597667,,0,,9:00 AM to 7:00 PM,9:00 AM to 7:00 PM,CLOSED,,1,368,
Shariyar Communication,Quetta,Dr Jaffer Building Jinnah Road Quetta,30.196703,67.0115996,,0,,9:00 AM to 7:00 PM,9:00 AM to 7:00 PM,CLOSED,,1,369,
Central Electronics,Quetta,Ufone Franchise ART School Road Quetta,30.212,66.99828,,0,,9:00 AM to 7:00 PM,9:00 AM to 7:00 PM,CLOSED,,1,370,
Ideal Communication,Quetta,Ufone Franchise Saryaab Road Near University Of Balochistan Quetta,30.168789,66.990525,,0,,9:00 AM to 7:00 PM,9:00 AM to 7:00 PM,CLOSED,,1,372,
Yasir Communication,Sibi,Near Assistant Commissioner House Shahra-E-Iqbal Road Sibi,29.548916,67.875044,,0,,9:00 AM to 7:00 PM,9:00 AM to 7:00 PM,CLOSED,,1,373,
Bugti Communication,Sui,Near Bugti Petroleum Service Muhammad Colony Sui,28.639905,69.19108,,0,,9:00 AM to 7:00 PM,9:00 AM to 7:00 PM,CLOSED,,1,374,
Raja Communication,Usta Muhammad,Shop 4 Near UBL Bank Chowk M-A Jinnah Road Usta Mohammad,28.178936,68.0453267,,0,,9:00 AM to 7:00 PM,9:00 AM to 7:00 PM,CLOSED,,1,375,
City Mobile Communication,Shahdad Kot,Shop 2 Near JS Bank Station Road Shahdadkot,27.848312,67.9106318,,0,,9:00 AM to 7:00 PM,9:00 AM to 7:00 PM,CLOSED,,1,376,
Nehal Traders,Khuzdar,Mir Chakker Khan Road Khuzdar,27.8067,66.6091,,0,,9:00 AM to 7:00 PM,9:00 AM to 7:00 PM,CLOSED,,1,378,
Kech Communication,Turbat,Ufone Franchise Near ABL Bank Main Road Turbat Kech,26.00551,63.05876,,0,,9:00 AM to 7:00 PM,9:00 AM to 7:00 PM,CLOSED,,1,379,
J K Communication,Mirpurkhas,New Town Near Khan Carpet Marya Hospital Mirpurkhas,25.527531,69.015925,,0,,9:00 AM to 7:00 PM,9:00 AM to 7:00 PM,CLOSED,,1,380,
Muhammad Communication,Hyderabad,Shop 1-2 Block-E Plot-163 Unit-8 Latifabad Hyderabad,25.3688,68.361472,,0,,9:00 AM to 7:00 PM,9:00 AM to 7:00 PM,CLOSED,,1,381,
Super Shaheen Services,Umerkot,Opposite NBP Ltd Allah Wala Chowk Umerkot,25.365819,69.7353758,,0,,9:00 AM to 7:00 PM,9:00 AM to 7:00 PM,CLOSED,,1,382,
S. K. Brothers,Karachi,Shop 7 Ground Floor Super Mahal Appartment Outram Road Off II Chundrigar Road Near Bank Al-Habib Karachi,24.85024,67.00991,,0,,9:00 AM to 7:00 PM,9:00 AM to 7:00 PM,CLOSED,,1,383,
Ahmed Enterprise?,Quetta,Institute Of Engineering Building Zarghoon Road Quetta,30.2088,67.0143,,0,,9:00 AM to 7:00 PM,9:00 AM to 7:00 PM,CLOSED,,1,387,
Afridi Enterprises,Harnai,Pawandha Road Harnai,30.1006,67.937,,0,,9:00 AM to 7:00 PM,9:00 AM to 7:00 PM,CLOSED,,1,390,
Khuzdar Telecommunication,Khuzdar,Gazgi Chowk Opposite Soneri Bank Ltd Khuzdar,27.8046,66.611,,0,,9:00 AM to 7:00 PM,9:00 AM to 7:00 PM,CLOSED,,1,391,
Master Communication,Awaran,Near Master Jee Transport Main Bazar Awaran,26.4573,65.2318,,0,,9:00 AM to 7:00 PM,9:00 AM to 7:00 PM,CLOSED,,1,395,
Ismail Durrani Enterprises,Chaghi,Main Bazar Chaghi,28.9804,62.4504,,0,,9:00 AM to 7:00 PM,9:00 AM to 7:00 PM,CLOSED,,1,400,
Rodini Commuincation,Washuk,Rodini Commuincation Main Bazar Washuk,27.7179,64.8052,,0,,9:00 AM to 7:00 PM,9:00 AM to 7:00 PM,CLOSED,,1,401,
Hurain Communication,Lahore,"Al-Madina Center, Block-B, Kotha Pind, Main Road, Faisal Town, Lahore",31.478746,74.307995,,0,,9:00 AM to 7:00 PM,9:00 AM to 7:00 PM,CLOSED,,1,402,
Adnan And Rizwan Communication,Panjgoor,NEAR NBP BANK CHITKAN BAZAR PANJOOR,26.972257,64.0546,,0,,9:00 AM to 7:00 PM,9:00 AM to 7:00 PM,CLOSED,,1,404,
ZAMAN COMMUNICATION,Sahiwal,Railway Road Near Model Bazar Sahiwal,30.660377,73.105911,,0,,9:00 AM to 7:00 PM,9:00 AM to 7:00 PM,CLOSED,,1,405,
Hammad & Co,Pind Dadan Khan,Near MCB Shalimar Chowk Pind Dadan Khan District Jhelum,32.588,73.045,,0,,9:00 AM to 7:00 PM,9:00 AM to 7:00 PM,CLOSED,,1,406,
S&M Communication,Lalamusa,"Opposite Zong Franchise, Near Pakistan Bakers & Sweets, Main GT Road, Lalamusa",32.697858,73.95707,,0,,9:00 AM to 7:00 PM,9:00 AM to 7:00 PM,CLOSED,,1,407,
Chaudhary Communication,Silanwali,"Near Nadra office, cinema road Silanwali",31.4938,72.3242,,0,,9:00 AM to 7:00 PM,9:00 AM to 7:00 PM,CLOSED,,1,418,
Range,Lahore,"Shop # 24, Block B-2, Near Education University, College Road, Township, Lahore.",31.454792,74.300399,,0,,9:00 AM to 7:00 PM,9:00 AM to 7:00 PM,CLOSED,,1,420,
Butt Traders,Mandi Bahauddin,Cheema Chock opposite Mashallah Plaza Phalia road Mandi Bahauddin,32.5789,73.4809,,0,,9:00 AM to 7:00 PM,9:00 AM to 7:00 PM,CLOSED,,1,423,
Akram and Son Communication,Mianwali,"Ballo Khail Road,Opposite Al-Barka Bank Mianwali",32.583038,71.532295,,0,,9:00 AM to 7:00 PM,9:00 AM to 7:00 PM,CLOSED,,1,425,
Sardar Communication,Mansehra,Shop # 5 Sultan plaza near Larri adda opposite Nadra office Mansehra,34.2107,73.1206,,0,,9:00 AM to 7:00 PM,9:00 AM to 7:00 PM,CLOSED,,1,426,
FAIZAN COMMUNICATION,Pishin,Near Cantt Rest House Main Pishin Road,30.57724,66.99453,,0,,9:00 AM to 7:00 PM,9:00 AM to 7:00 PM,CLOSED,,1,427,
Sky link Communication,Taxila,"Main GT Road ,Near Meezan Bank Taxila",33.73631,72.80001,,0,,9:00 AM to 7:00 PM,9:00 AM to 7:00 PM,CLOSED,,1,428,
AL MADINA TELECOM,Mingora,"Ufone Franchise, Continental Plaza, Saidu Road, Makan Bagh, Mingora, Swat",34.768187,72.359961,,0,,9:00 AM to 7:00 PM,9:00 AM to 7:00 PM,CLOSED,,1,430,
Total CDMA,Islamabad,"Shop No. 1, Arshad Shareef Plaza, G-11 Markaz, Islamabad",33.6692,72.9984,242,0,,9:00 AM to 7:00 PM,9:00 AM to 7:00 PM,CLOSED,,1,433,
Asim Communication,D.G. Khan,Pull Dot Jampur road Near UBL Bank DG Khan,30.030884,70.640672,UFRPJR0002,0,,9:00 AM to 7:00 PM,9:00 AM to 7:00 PM,CLOSED,,1,434,
ATTA Communication,Khushab,"Shop#18, First Floor, Thana Market Khushab",32.295307,72.349358,UFRSAH0006,0,Sahiwal,9:00 AM to 7:00 PM,9:00 AM to 7:00 PM,CLOSED,,1,435,
M.M Communication,Karachi,"SHOP NO.02, SHADMAN APARTMENT, U.K.C.H.S, COMMERCIAL AREA, BLOCK-7 & 8, OPP. BURHANI MASJID, OFF SHAHEED-E-MILLAT ROAD, KARACHI.",24.869456,67.082284,,0,,9:00 AM to 7:00 PM,9:00 AM to 7:00 PM,CLOSED,,1,437,
Hamdan Telcom,Chiniot,City Trade Center Near Dhq Hospital Sargodha Road Chiniot,31.72349,72.98685,UFRLAL0002,5,Gujranwala,9:00 AM to 7:00 PM,9:00 AM to 7:00 PM,CLOSED,,1,642,
NEW Choti Mobile Communication,Choti Zirin,Main Chowk Near Dr Zubair Chingwani Hospital Choti Zirin Tehsil Kot Chutta,29.844354,70.493177,UFRSWL0002,1,,9:00 AM to 7:00 PM,9:00 AM to 7:00 PM,CLOSED,,1,645,
Hussain Communication,Muzaffargarh,Jhang Morr Opposite Oasis hotel Muzaffargarh,30.077927,71.185632,UFRLHE0038,1,Lahore-1,9:00 AM to 7:00 PM,9:00 AM to 7:00 PM,CLOSED,,1,648,
Malik Telecom,Nowshera,Main bazar Nowshera,34.0054,71.9874,UFRMBD0003,1,Gujranwala,9:00 AM to 7:00 PM,9:00 AM to 7:00 PM,CLOSED,,1,652,
Rashid Mobile Center,Pabbi,Madina Market Near TCS Office Pabbi Opposite Masjid e Quba GT Road Pabbi,34.0101,71.79131,UFRMWL0004,1,Faisalabad,9:00 AM to 7:00 PM,9:00 AM to 7:00 PM,CLOSED,,1,653,
M Anwer Communication,Dukki,Main Bacha Khan Chock Near Meezan Bank Khajori Chock Bypass Road,30.1562,68.57442,UFRMNH0004,5,North-1,9:00 AM to 7:00 PM,9:00 AM to 7:00 PM,CLOSED,,1,654,
Smart People Technologies,Lahore,"Ufone Franchise, Al Meraj Arcade, Chowk Choburji, Lahore",31.554323,74.305475,UFRPSN0002,4,QUETTA,9:00 AM to 7:00 PM,9:00 AM to 7:00 PM,CLOSED,,1,656,
YASEEN TELECOMUNICATION,Charsada,"Faheem Khan Market, Near Bank Of Punjab, Main Bazar Tangi",34.2930061,71.6519914,UFRTXL0002,5,Islamabad,9:00 AM to 7:00 PM,9:00 AM to 7:00 PM,CLOSED,,1,666,
Saim Communication,Layyah,"Ufone Franchise, Chobara Road, Near Dr. Feroz Hospital, Layyah",30.965958,70.946709,,1,,9:00 AM to 7:00 PM,9:00 AM to 7:00 PM,CLOSED,,1,677,
Bhatti And RAJPOOT Telecom,Bhalwal,Liaqat Shaheed Road Bhalwal opposite national bank,32.2692,72.904,,1,,9:00 AM to 7:00 PM,9:00 AM to 7:00 PM,CLOSED,,1,678,
,,,,,,1,,9:00 AM to 7:00 PM,9:00 AM to 7:00 PM,CLOSED,,1,679,
,,,,,,1,,9:00 AM to 7:00 PM,9:00 AM to 7:00 PM,CLOSED,,1,680,
,,,,,,1,,9:00 AM to 7:00 PM,9:00 AM to 7:00 PM,CLOSED,,1,682,
,,,,,,1,,9:00 AM to 7:00 PM,9:00 AM to 7:00 PM,CLOSED,,1,683,
,,,,,,1,,9AM - 7PM,,CLOSED,,1,684,
,,,,,,1,,9AM - 7PM,,CLOSED,,1,685,
,,,,,,1,,9AM - 7PM,,,,1,686,
,,,,,,1,,9:00 AM to 7:00 PM,,CLOSED,,1,690,
,,,,,,1,,9:00 AM to 7:00 PM,,CLOSED,,1,693,
,,,,,,1,,9:00 AM to 7:00 PM,,CLOSED,,1,695,
,,,,,,5,PESHAWAR,9:00 AM to 7:00 PM,9:00 AM to 7:00 PM,CLOSED,,1,696,
,,,,,,1,,9:00 AM to 7:00 PM,9:00 AM to 7:00 PM,CLOSED,,1,699,
,,,,,,1,,9:00 AM to 7:00 PM,9:00 AM to 7:00 PM,CLOSED,,1,701,